ONEWEB-0685             
1 54679U 22166AP  25288.82018670  .00000024  00000+0  25679-4 0  9993
2 54679  87.9169 292.7498 0001690  83.5714 276.5613 13.21829725139135
ONEWEB-0712             
1 54680U 22166AQ  25288.72979297  .00000100  00000+0  22781-3 0  9990
2 54680  87.8982 277.4698 0001417  99.6227 260.5064 13.16594048139892
ONEWEB-0714             
1 54681U 22166AR  25288.82625537 -.00000012  00000+0 -60683-4 0  9995
2 54681  87.9170 292.7422 0001670  88.6029 271.5296 13.21872882139257
ONEWEB-0532             
1 55140U 23004A   25288.74669529 -.00000090  00000+0 -26424-3 0  9998
2 55140  87.9112  54.4658 0001878  86.0677 274.0669 13.17649050135396
ONEWEB-0533             
1 55141U 23004B   25288.58366069 -.00000121  00000+0 -37268-3 0  9997
2 55141  87.8961  39.2531 0001522  99.1071 261.0230 13.12443572135978
ONEWEB-0541             
1 55142U 23004C   25288.65114854 -.00000421  00000+0 -12232-2 0  9995
2 55142  87.8822  69.7476 0001750  94.6779 265.4549 13.11415808133899
ONEWEB-0543             
1 55143U 23004D   25288.31034326 -.00000200  00000+0 -54061-3 0  9996
2 55143  87.9211  24.1347 0001670 108.6109 251.5205 13.18686538137424
ONEWEB-0544             
1 55144U 23004E   25288.53138240 -.00000030  00000+0 -10799-3 0  9992
2 55144  87.9211  24.0805 0001867 107.7859 252.3477 13.18686617137454
